DELTA 2 R/B(1)          
1 20453U 90008B   26004.99462097  .00058594  00000+0  87859-3 0  9999
2 20453  35.6038 230.1249 0104901  29.6152 331.0469 15.47604077916230
COSMOS 2058             
1 20465U 90010A   26005.00856193  .00005059  00000+0  30318-3 0  9998
2 20465  82.4721 110.1444 0010040 189.6726 170.4312 15.10737058932629
SL-14 R/B               
1 20466U 90010B   26005.15083284  .00000698  00000+0  81688-4 0  9999
2 20466  82.5035 327.0597 0020647 145.4745 214.7816 14.83499170919065
SL-14 R/B               
1 20511U 90018B   26005.17495575  .00000712  00000+0  86523-4 0  9990
2 20511  82.5222 282.4629 0015155 304.5213  55.4570 14.82076666913173
HST                     
1 20580U 90037B   26004.45283296  .00008296  00000+0  28355-3 0  9995
2 20580  28.4666 117.8486 0002527 116.6898 243.3956 15.28391625763470
SL-16 R/B               
1 20625U 90046B   26005.14512316  .00000361  00000+0  21104-3 0  9990
2 20625  70.9996  71.3688 0012837  33.6293 326.5642 14.15001682839407
COSMOS 2084             
1 20663U 90055A   26004.88817137  .00003925  00000+0  28562-3 0  9995
2 20663  62.7887 193.1092 0027837 177.9947 182.1270 15.05186671926719
SL-6 R/B(2)             
1 20666U 90055D   26004.65215377  .00003399  00000+0  26380-3 0  9992
2 20666  62.7841 111.5562 0015572 323.6778  36.3263 15.03215788928560
SL-8 R/B                
1 20775U 90078B   26004.95676883  .00014839  00000+0  45405-3 0  9994
2 20775  82.9069 308.5163 0369120 227.6926 129.2471 14.86782030799828
SL-8 R/B                
1 21088U 91006B   26005.15187907  .00000037  00000+0  22258-4 0  9998
2 21088  82.9409 217.2976 0021754 210.7675 270.0079 13.77492982755323
OKEAN-3                 
1 21397U 91039A   26005.16464288  .00004394  00000+0  31302-3 0  9997
2 21397  82.5153  38.3687 0014280 180.7900 179.3306 15.04293653855480
COSMOS 2151             
1 21422U 91042A   26005.10868316  .00002915  00000+0  23336-3 0  9999
2 21422  82.4975 144.9823 0011133 274.9565  85.0387 14.99804455853664
