CCSDS_OMM_VERS = 2.0
CREATION_DATE  = 
ORIGINATOR     = 

OBJECT_NAME    = DELTA 2 R/B(1)
OBJECT_ID      = 1990-008B
CENTER_NAME    = EARTH
REF_FRAME      = TEME
TIME_SYSTEM    = UTC
MEAN_ELEMENT_THEORY = SGP/SGP4

EPOCH          = 2026-01-04T23:52:15.251808
MEAN_MOTION    = 15.47604077
ECCENTRICITY   = .0104901
INCLINATION    = 35.6038
RA_OF_ASC_NODE = 230.1249
ARG_OF_PERICENTER = 29.6152
MEAN_ANOMALY   = 331.0469

EPHEMERIS_TYPE = 0
CLASSIFICATION_TYPE = U
NORAD_CAT_ID   = 20453
ELEMENT_SET_NO = 999
REV_AT_EPOCH   = 91623
BSTAR          = .87859E-3
MEAN_MOTION_DOT = .58594E-3
MEAN_MOTION_DDOT = 0

CCSDS_OMM_VERS = 2.0
CREATION_DATE  = 
ORIGINATOR     = 

OBJECT_NAME    = COSMOS 2058
OBJECT_ID      = 1990-010A
CENTER_NAME    = EARTH
REF_FRAME      = TEME
TIME_SYSTEM    = UTC
MEAN_ELEMENT_THEORY = SGP/SGP4

EPOCH          = 2026-01-05T00:12:19.750752
MEAN_MOTION    = 15.10737058
ECCENTRICITY   = .001004
INCLINATION    = 82.4721
RA_OF_ASC_NODE = 110.1444
ARG_OF_PERICENTER = 189.6726
MEAN_ANOMALY   = 170.4312

EPHEMERIS_TYPE = 0
CLASSIFICATION_TYPE = U
NORAD_CAT_ID   = 20465
ELEMENT_SET_NO = 999
REV_AT_EPOCH   = 93262
BSTAR          = .30318E-3
MEAN_MOTION_DOT = .5059E-4
MEAN_MOTION_DDOT = 0

CCSDS_OMM_VERS = 2.0
CREATION_DATE  = 
ORIGINATOR     = 

OBJECT_NAME    = SL-14 R/B
OBJECT_ID      = 1990-010B
CENTER_NAME    = EARTH
REF_FRAME      = TEME
TIME_SYSTEM    = UTC
MEAN_ELEMENT_THEORY = SGP/SGP4

EPOCH          = 2026-01-05T03:37:11.957376
MEAN_MOTION    = 14.83499170
ECCENTRICITY   = .0020647
INCLINATION    = 82.5035
RA_OF_ASC_NODE = 327.0597
ARG_OF_PERICENTER = 145.4745
MEAN_ANOMALY   = 214.7816

EPHEMERIS_TYPE = 0
CLASSIFICATION_TYPE = U
NORAD_CAT_ID   = 20466
ELEMENT_SET_NO = 999
REV_AT_EPOCH   = 91906
BSTAR          = .81688E-4
MEAN_MOTION_DOT = .698E-5
MEAN_MOTION_DDOT = 0

CCSDS_OMM_VERS = 2.0
CREATION_DATE  = 
ORIGINATOR     = 

OBJECT_NAME    = SL-14 R/B
OBJECT_ID      = 1990-018B
CENTER_NAME    = EARTH
REF_FRAME      = TEME
TIME_SYSTEM    = UTC
MEAN_ELEMENT_THEORY = SGP/SGP4

EPOCH          = 2026-01-05T04:11:56.176800
MEAN_MOTION    = 14.82076666
ECCENTRICITY   = .0015155
INCLINATION    = 82.5222
RA_OF_ASC_NODE = 282.4629
ARG_OF_PERICENTER = 304.5213
MEAN_ANOMALY   = 55.4570

EPHEMERIS_TYPE = 0
CLASSIFICATION_TYPE = U
NORAD_CAT_ID   = 20511
ELEMENT_SET_NO = 999
REV_AT_EPOCH   = 91317
BSTAR          = .86523E-4
MEAN_MOTION_DOT = .712E-5
MEAN_MOTION_DDOT = 0

CCSDS_OMM_VERS = 2.0
CREATION_DATE  = 
ORIGINATOR     = 

OBJECT_NAME    = HST
OBJECT_ID      = 1990-037B
CENTER_NAME    = EARTH
REF_FRAME      = TEME
TIME_SYSTEM    = UTC
MEAN_ELEMENT_THEORY = SGP/SGP4

EPOCH          = 2026-01-04T10:52:04.767744
MEAN_MOTION    = 15.28391625
ECCENTRICITY   = .0002527
INCLINATION    = 28.4666
RA_OF_ASC_NODE = 117.8486
ARG_OF_PERICENTER = 116.6898
MEAN_ANOMALY   = 243.3956

EPHEMERIS_TYPE = 0
CLASSIFICATION_TYPE = U
NORAD_CAT_ID   = 20580
ELEMENT_SET_NO = 999
REV_AT_EPOCH   = 76347
BSTAR          = .28355E-3
MEAN_MOTION_DOT = .8296E-4
MEAN_MOTION_DDOT = 0

CCSDS_OMM_VERS = 2.0
CREATION_DATE  = 
ORIGINATOR     = 

OBJECT_NAME    = SL-16 R/B
OBJECT_ID      = 1990-046B
CENTER_NAME    = EARTH
REF_FRAME      = TEME
TIME_SYSTEM    = UTC
MEAN_ELEMENT_THEORY = SGP/SGP4

EPOCH          = 2026-01-05T03:28:58.641024
MEAN_MOTION    = 14.15001682
ECCENTRICITY   = .0012837
INCLINATION    = 70.9996
RA_OF_ASC_NODE = 71.3688
ARG_OF_PERICENTER = 33.6293
MEAN_ANOMALY   = 326.5642

EPHEMERIS_TYPE = 0
CLASSIFICATION_TYPE = U
NORAD_CAT_ID   = 20625
ELEMENT_SET_NO = 999
REV_AT_EPOCH   = 83940
BSTAR          = .21104E-3
MEAN_MOTION_DOT = .361E-5
MEAN_MOTION_DDOT = 0

CCSDS_OMM_VERS = 2.0
CREATION_DATE  = 
ORIGINATOR     = 

OBJECT_NAME    = COSMOS 2084
OBJECT_ID      = 1990-055A
CENTER_NAME    = EARTH
REF_FRAME      = TEME
TIME_SYSTEM    = UTC
MEAN_ELEMENT_THEORY = SGP/SGP4

EPOCH          = 2026-01-04T21:18:58.006368
MEAN_MOTION    = 15.05186671
ECCENTRICITY   = .0027837
INCLINATION    = 62.7887
RA_OF_ASC_NODE = 193.1092
ARG_OF_PERICENTER = 177.9947
MEAN_ANOMALY   = 182.1270

EPHEMERIS_TYPE = 0
CLASSIFICATION_TYPE = U
NORAD_CAT_ID   = 20663
ELEMENT_SET_NO = 999
REV_AT_EPOCH   = 92671
BSTAR          = .28562E-3
MEAN_MOTION_DOT = .3925E-4
MEAN_MOTION_DDOT = 0

CCSDS_OMM_VERS = 2.0
CREATION_DATE  = 
ORIGINATOR     = 

OBJECT_NAME    = SL-6 R/B(2)
OBJECT_ID      = 1990-055D
CENTER_NAME    = EARTH
REF_FRAME      = TEME
TIME_SYSTEM    = UTC
MEAN_ELEMENT_THEORY = SGP/SGP4

EPOCH          = 2026-01-04T15:39:06.085728
MEAN_MOTION    = 15.03215788
ECCENTRICITY   = .0015572
INCLINATION    = 62.7841
RA_OF_ASC_NODE = 111.5562
ARG_OF_PERICENTER = 323.6778
MEAN_ANOMALY   = 36.3263

EPHEMERIS_TYPE = 0
CLASSIFICATION_TYPE = U
NORAD_CAT_ID   = 20666
ELEMENT_SET_NO = 999
REV_AT_EPOCH   = 92856
BSTAR          = .2638E-3
MEAN_MOTION_DOT = .3399E-4
MEAN_MOTION_DDOT = 0

CCSDS_OMM_VERS = 2.0
CREATION_DATE  = 
ORIGINATOR     = 

OBJECT_NAME    = SL-8 R/B
OBJECT_ID      = 1990-078B
CENTER_NAME    = EARTH
REF_FRAME      = TEME
TIME_SYSTEM    = UTC
MEAN_ELEMENT_THEORY = SGP/SGP4

EPOCH          = 2026-01-04T22:57:44.826912
MEAN_MOTION    = 14.86782030
ECCENTRICITY   = .036912
INCLINATION    = 82.9069
RA_OF_ASC_NODE = 308.5163
ARG_OF_PERICENTER = 227.6926
MEAN_ANOMALY   = 129.2471

EPHEMERIS_TYPE = 0
CLASSIFICATION_TYPE = U
NORAD_CAT_ID   = 20775
ELEMENT_SET_NO = 999
REV_AT_EPOCH   = 79982
BSTAR          = .45405E-3
MEAN_MOTION_DOT = .14839E-3
MEAN_MOTION_DDOT = 0

CCSDS_OMM_VERS = 2.0
CREATION_DATE  = 
ORIGINATOR     = 

OBJECT_NAME    = SL-8 R/B
OBJECT_ID      = 1991-006B
CENTER_NAME    = EARTH
REF_FRAME      = TEME
TIME_SYSTEM    = UTC
MEAN_ELEMENT_THEORY = SGP/SGP4

EPOCH          = 2026-01-05T03:38:42.351648
MEAN_MOTION    = 13.77492982
ECCENTRICITY   = .0021754
INCLINATION    = 82.9409
RA_OF_ASC_NODE = 217.2976
ARG_OF_PERICENTER = 210.7675
MEAN_ANOMALY   = 270.0079

EPHEMERIS_TYPE = 0
CLASSIFICATION_TYPE = U
NORAD_CAT_ID   = 21088
ELEMENT_SET_NO = 999
REV_AT_EPOCH   = 75532
BSTAR          = .22258E-4
MEAN_MOTION_DOT = .37E-6
MEAN_MOTION_DDOT = 0

CCSDS_OMM_VERS = 2.0
CREATION_DATE  = 
ORIGINATOR     = 

OBJECT_NAME    = OKEAN-3
OBJECT_ID      = 1991-039A
CENTER_NAME    = EARTH
REF_FRAME      = TEME
TIME_SYSTEM    = UTC
MEAN_ELEMENT_THEORY = SGP/SGP4

EPOCH          = 2026-01-05T03:57:05.144832
MEAN_MOTION    = 15.04293653
ECCENTRICITY   = .001428
INCLINATION    = 82.5153
RA_OF_ASC_NODE = 38.3687
ARG_OF_PERICENTER = 180.7900
MEAN_ANOMALY   = 179.3306

EPHEMERIS_TYPE = 0
CLASSIFICATION_TYPE = U
NORAD_CAT_ID   = 21397
ELEMENT_SET_NO = 999
REV_AT_EPOCH   = 85548
BSTAR          = .31302E-3
MEAN_MOTION_DOT = .4394E-4
MEAN_MOTION_DDOT = 0

CCSDS_OMM_VERS = 2.0
CREATION_DATE  = 
ORIGINATOR     = 

OBJECT_NAME    = COSMOS 2151
OBJECT_ID      = 1991-042A
CENTER_NAME    = EARTH
REF_FRAME      = TEME
TIME_SYSTEM    = UTC
MEAN_ELEMENT_THEORY = SGP/SGP4

EPOCH          = 2026-01-05T02:36:30.225024
MEAN_MOTION    = 14.99804455
ECCENTRICITY   = .0011133
INCLINATION    = 82.4975
RA_OF_ASC_NODE = 144.9823
ARG_OF_PERICENTER = 274.9565
MEAN_ANOMALY   = 85.0387

EPHEMERIS_TYPE = 0
CLASSIFICATION_TYPE = U
NORAD_CAT_ID   = 21422
ELEMENT_SET_NO = 999
REV_AT_EPOCH   = 85366
BSTAR          = .23336E-3
MEAN_MOTION_DOT = .2915E-4
MEAN_MOTION_DDOT = 0

